STARLINK-1033_new
1 14738C 19074BA  21326.15920368  .00004271  00000-0  28617-3 0  3260
2 14738  53.0545  48.0186 0001148  76.5602 144.5846 15.06397700    18
STARLINK-1033_old
1 24738C 19074BA  21325.13751243  .00007079  00000-0  47409-3 0  3259
2 24738  53.0544  52.6051 0001303  78.9911 358.3531 15.06407304    19
